GLOBALSTAR M024 [-]     
1 25883U 99043A   23300.25833622  .00000007  00000+0  25559-2 0  9994
2 25883  52.0017 291.9963 0001107 186.5984 270.9247 11.10156245 48371
GLOBALSTAR M027 [-]     
1 25884U 99043B   23299.84978510 -.00000036  00000+0  10408-2 0  9993
2 25884  52.0247 353.9262 0021632 103.8753 256.4448 11.04364904 75029
GLOBALSTAR M054 [-]     
1 25885U 99043C   23299.25054389 -.00000104  00000+0 -82840-3 0  9995
2 25885  52.0131 223.2328 0003860 212.7969 304.6904 11.39203692 50677
GLOBALSTAR M053 [-]     
1 25886U 99043D   23300.55326228 -.00000039  00000+0  85368-3 0  9990
2 25886  51.9945 133.9986 0004065 132.3134 260.7066 11.27651968 52050
GLOBALSTAR M058 [-]     
1 25907U 99049A   23299.67238101 -.00000082  00000+0  30360-4 0  9993
2 25907  51.9935 269.9920 0002037 184.6351 175.4465 11.93167658469978
GLOBALSTAR M050 [-]     
1 25908U 99049B   23299.81554812  .00000033  00000+0  13644-2 0  9999
2 25908  51.9999 322.0641 0008782 277.9479 253.5311 12.07422782 75788
GLOBALSTAR M033 [-]     
1 25909U 99049C   23300.50319274 -.00000171  00000+0 -76652-3 0  9994
2 25909  51.9908 233.3589 0011818 120.7992 239.4020 12.20260193 95382
GLOBALSTAR M055 [-]     
1 25910U 99049D   23299.65626698 -.00000090  00000+0  33348-4 0  9995
2 25910  52.0014 275.6645 0007058 330.4950  29.5503 12.29389540 94549
